{"type": "FeatureCollection", "features": [ {"type": "Feature", "properties": {"norad_id": 31456, "name": "FENGYUN 1C DEB", "group": "fengyun-1c-debris", "lat": 13.201664990702412, "lon": 100.62349678285537, "alt_km": 759.6258732436472, "timestamp": "2025-12-26T05:31:12.789896+00:00", "meta": {"OBJECT_NAME": "FENGYUN 1C DEB", "OBJECT_ID": "1999-025BUU", "EPOCH": "2025-12-25T12:48:38.504736", "MEAN_MOTION": 14.42466354, "ECCENTRICITY": 0.0067741, "INCLINATION": 98.5769, "RA_OF_ASC_NODE": 101.9524, "ARG_OF_PERICENTER": 275.3984, "MEAN_ANOMALY": 83.948, "EPHEMERIS_TYPE": 0, "CLASSIFICATION_TYPE": "U", "NORAD_CAT_ID": 31456, "ELEMENT_SET_NO": 999, "REV_AT_EPOCH": 97651, "BSTAR": 0.00090036, "MEAN_MOTION_DOT": 3.019e-05, "MEAN_MOTION_DDOT": 0}, "tle": {"line1": "1 31456U 99025BUU 25359.53377899  .00003019  00000+0  90036-3 0  9992", "line2": "2 31456  98.5769 101.9524 0067741 275.3984  83.9480 14.42466354976519"}}, "geometry": {"type": "Point", "coordinates": [100.62349678285537, 13.201664990702412]}}, {"type": "Feature", "properties": {"norad_id": 31459, "name": "FENGYUN 1C DEB", "group": "fengyun-1c-debris", "lat": 38.17849294345668, "lon": -98.51629090529472, "alt_km": 699.9354604300524, "timestamp": "2025-12-26T05:31:12.789905+00:00", "meta": {"OBJECT_NAME": "FENGYUN 1C DEB", "OBJECT_ID": "1999-025BUX", "EPOCH": "2025-12-12T23:44:38.705568", "MEAN_MOTION": 14.44083824, "ECCENTRICITY": 0.00940456, "INCLINATION": 98.1765, "RA_OF_ASC_NODE": 255.2445, "ARG_OF_PERICENTER": 130.906, "MEAN_ANOMALY": 230.0325, "EPHEMERIS_TYPE": 0, "CLASSIFICATION_TYPE": "U", "NORAD_CAT_ID": 31459, "ELEMENT_SET_NO": 999, "REV_AT_EPOCH": 64561, "BSTAR": 0.0020176648, "MEAN_MOTION_DOT": 7.253e-05, "MEAN_MOTION_DDOT": 0}, "tle": {"line1": "1 31459U 99025BUX 25346.98933687  .00007253  00000+0  20177-2 0  9995", "line2": "2 31459  98.1765 255.2445 0094045 130.9060 230.0325 14.44083824645613"}}, "geometry": {"type": "Point", "coordinates": [-98.51629090529472, 38.17849294345668]}}, {"type": "Feature", "properties": {"norad_id": 31462, "name": "FENGYUN 1C DEB", "group": "fengyun-1c-debris", "lat": 30.04028334630906, "lon": -156.69163765743966, "alt_km": 824.851455505197, "timestamp": "2025-12-26T05:31:12.789916+00:00", "meta": {"OBJECT_NAME": "FENGYUN 1C DEB", "OBJECT_ID": "1999-025BVA", "EPOCH": "2025-12-22T13:11:27.568896", "MEAN_MOTION": 14.13022344, "ECCENTRICITY": 0.00325464, "INCLINATION": 98.689, "RA_OF_ASC_NODE": 14.663, "ARG_OF_PERICENTER": 176.2989, "MEAN_ANOMALY": 342.0684, "EPHEMERIS_TYPE": 0, "CLASSIFICATION_TYPE": "U", "NORAD_CAT_ID": 31462, "ELEMENT_SET_NO": 999, "REV_AT_EPOCH": 95994, "BSTAR": 0.00028157306, "MEAN_MOTION_DOT": 4.85e-06, "MEAN_MOTION_DDOT": 0}, "tle": {"line1": "1 31462U 99025BVA 25356.54962464  .00000485  00000+0  28157-3 0  9994", "line2": "2 31462  98.6890  14.6630 0032546 176.2989 342.0684 14.13022344959947"}}, "geometry": {"type": "Point", "coordinates": [-156.69163765743966, 30.04028334630906]}}, {"type": "Feature", "properties": {"norad_id": 31463, "name": "FENGYUN 1C DEB", "group": "fengyun-1c-debris", "lat": -16.276085806483582, "lon": 159.98814429109592, "alt_km": 919.4292048382467, "timestamp": "2025-12-26T05:31:12.789925+00:00", "meta": {"OBJECT_NAME": "FENGYUN 1C DEB", "OBJECT_ID": "1999-025BVB", "EPOCH": "2025-12-23T04:45:01.858752", "MEAN_MOTION": 14.36987164, "ECCENTRICITY": 0.02131915, "INCLINATION": 99.0817, "RA_OF_ASC_NODE": 339.4644, "ARG_OF_PERICENTER": 9.2607, "MEAN_ANOMALY": 351.2414, "EPHEMERIS_TYPE": 0, "CLASSIFICATION_TYPE": "U", "NORAD_CAT_ID": 31463, "ELEMENT_SET_NO": 999, "REV_AT_EPOCH": 64870, "BSTAR": 0.00056955164, "MEAN_MOTION_DOT": 2.135e-05, "MEAN_MOTION_DDOT": 0}, "tle": {"line1": "1 31463U 99025BVB 25357.19793818  .00002135  00000+0  56955-3 0  9993", "line2": "2 31463  99.0817 339.4644 0213191   9.2607 351.2414 14.36987164648701"}}, "geometry": {"type": "Point", "coordinates": [159.98814429109592, -16.276085806483582]}}, {"type": "Feature", "properties": {"norad_id": 31464, "name": "FENGYUN 1C DEB", "group": "fengyun-1c-debris", "lat": 65.39682478848, "lon": 27.006790907557598, "alt_km": 867.3165560373036, "timestamp": "2025-12-26T05:31:12.789936+00:00", "meta": {"OBJECT_NAME": "FENGYUN 1C DEB", "OBJECT_ID": "1999-025BVC", "EPOCH": "2025-12-24T23:10:31.080000", "MEAN_MOTION": 14.12490109, "ECCENTRICITY": 0.00436815, "INCLINATION": 98.7932, "RA_OF_ASC_NODE": 45.523, "ARG_OF_PERICENTER": 207.1359, "MEAN_ANOMALY": 274.483, "EPHEMERIS_TYPE": 0, "CLASSIFICATION_TYPE": "U", "NORAD_CAT_ID": 31464, "ELEMENT_SET_NO": 999, "REV_AT_EPOCH": 94852, "BSTAR": 0.00029095941, "MEAN_MOTION_DOT": 4.99e-06, "MEAN_MOTION_DDOT": 0}, "tle": {"line1": "1 31464U 99025BVC 25358.96563750  .00000499  00000+0  29096-3 0  9997", "line2": "2 31464  98.7932  45.5230 0043681 207.1359 274.4830 14.12490109948523"}}, "geometry": {"type": "Point", "coordinates": [27.006790907557598, 65.39682478848]}}, {"type": "Feature", "properties": {"norad_id": 31466, "name": "FENGYUN 1C DEB", "group": "fengyun-1c-debris", "lat": -70.65539382117765, "lon": 83.40610004285436, "alt_km": 631.6611394693409, "timestamp": "2025-12-26T05:31:12.789946+00:00", "meta": {"OBJECT_NAME": "FENGYUN 1C DEB", "OBJECT_ID": "1999-025BVE", "EPOCH": "2025-12-24T01:31:35.121216", "MEAN_MOTION": 14.18535486, "ECCENTRICITY": 0.0298714, "INCLINATION": 99.0889, "RA_OF_ASC_NODE": 288.311, "ARG_OF_PERICENTER": 276.5409, "MEAN_ANOMALY": 80.1844, "EPHEMERIS_TYPE": 0, "CLASSIFICATION_TYPE": "U", "NORAD_CAT_ID": 31466, "ELEMENT_SET_NO": 999, "REV_AT_EPOCH": 96489, "BSTAR": 0.00017768632, "MEAN_MOTION_DOT": 5.14e-06, "MEAN_MOTION_DDOT": 0}, "tle": {"line1": "1 31466U 99025BVE 25358.06360094  .00000514  00000+0  17769-3 0  9998", "line2": "2 31466  99.0889 288.3110 0298714 276.5409  80.1844 14.18535486964898"}}, "geometry": {"type": "Point", "coordinates": [83.40610004285436, -70.65539382117765]}}, {"type": "Feature", "properties": {"norad_id": 31468, "name": "FENGYUN 1C DEB", "group": "fengyun-1c-debris", "lat": -74.85071802029974, "lon": 143.8197369533341, "alt_km": 821.5383991642375, "timestamp": "2025-12-26T05:31:12.789956+00:00", "meta": {"OBJECT_NAME": "FENGYUN 1C DEB", "OBJECT_ID": "1999-025BVG", "EPOCH": "2025-12-15T17:40:52.277088", "MEAN_MOTION": 14.46598121, "ECCENTRICITY": 0.01665536, "INCLINATION": 98.1678, "RA_OF_ASC_NODE": 345.7354, "ARG_OF_PERICENTER": 157.6429, "MEAN_ANOMALY": 203.2135, "EPHEMERIS_TYPE": 0, "CLASSIFICATION_TYPE": "U", "NORAD_CAT_ID": 31468, "ELEMENT_SET_NO": 999, "REV_AT_EPOCH": 67415, "BSTAR": 0.00027310227, "MEAN_MOTION_DOT": 1.122e-05, "MEAN_MOTION_DDOT": 0}, "tle": {"line1": "1 31468U 99025BVG 25349.73671617  .00001122  00000+0  27310-3 0  9999", "line2": "2 31468  98.1678 345.7354 0166553 157.6429 203.2135 14.46598121674154"}}, "geometry": {"type": "Point", "coordinates": [143.8197369533341, -74.85071802029974]}}, {"type": "Feature", "properties": {"norad_id": 31473, "name": "FENGYUN 1C DEB", "group": "fengyun-1c-debris", "lat": -48.24319654321696, "lon": 42.73656005751183, "alt_km": 756.5887759734815, "timestamp": "2025-12-26T05:31:12.789966+00:00", "meta": {"OBJECT_NAME": "FENGYUN 1C DEB", "OBJECT_ID": "1999-025BVM", "EPOCH": "2025-12-25T01:18:58.811904", "MEAN_MOTION": 14.2987005, "ECCENTRICITY": 0.00644258, "INCLINATION": 98.5447, "RA_OF_ASC_NODE": 31.8881, "ARG_OF_PERICENTER": 338.2554, "MEAN_ANOMALY": 47.4091, "EPHEMERIS_TYPE": 0, "CLASSIFICATION_TYPE": "U", "NORAD_CAT_ID": 31473, "ELEMENT_SET_NO": 999, "REV_AT_EPOCH": 69697, "BSTAR": 0.0014425568, "MEAN_MOTION_DOT": 3.754e-05, "MEAN_MOTION_DDOT": 0}, "tle": {"line1": "1 31473U 99025BVM 25359.05484736  .00003754  00000+0  14426-2 0  9991", "line2": "2 31473  98.5447  31.8881 0064425 338.2554  47.4091 14.29870050696975"}}, "geometry": {"type": "Point", "coordinates": [42.73656005751183, -48.24319654321696]}}, {"type": "Feature", "properties": {"norad_id": 31474, "name": "FENGYUN 1C DEB", "group": "fengyun-1c-debris", "lat": 23.853713833151314, "lon": 42.23555192468001, "alt_km": 898.8721969114285, "timestamp": "2025-12-26T05:31:12.789976+00:00", "meta": {"OBJECT_NAME": "FENGYUN 1C DEB", "OBJECT_ID": "1999-025BVN", "EPOCH": "2025-12-17T20:31:53.420160", "MEAN_MOTION": 14.10616871, "ECCENTRICITY": 0.00720818, "INCLINATION": 99.1448, "RA_OF_ASC_NODE": 37.8022, "ARG_OF_PERICENTER": 192.292, "MEAN_ANOMALY": 167.6494, "EPHEMERIS_TYPE": 0, "CLASSIFICATION_TYPE": "U", "NORAD_CAT_ID": 31474, "ELEMENT_SET_NO": 999, "REV_AT_EPOCH": 95042, "BSTAR": 0.0012018353, "MEAN_MOTION_DOT": 2.151e-05, "MEAN_MOTION_DDOT": 0}, "tle": {"line1": "1 31474U 99025BVN 25351.85547940  .00002151  00000+0  12018-2 0  9994", "line2": "2 31474  99.1448  37.8022 0072081 192.2920 167.6494 14.10616871950423"}}, "geometry": {"type": "Point", "coordinates": [42.23555192468001, 23.853713833151314]}}, {"type": "Feature", "properties": {"norad_id": 31475, "name": "FENGYUN 1C DEB", "group": "fengyun-1c-debris", "lat": -57.95443481134357, "lon": 54.919941741149714, "alt_km": 920.8800032393356, "timestamp": "2025-12-26T05:31:12.789986+00:00", "meta": {"OBJECT_NAME": "FENGYUN 1C DEB", "OBJECT_ID": "1999-025BVP", "EPOCH": "2025-12-23T22:59:46.307040", "MEAN_MOTION": 14.38250709, "ECCENTRICITY": 0.0211772, "INCLINATION": 98.9391, "RA_OF_ASC_NODE": 247.1174, "ARG_OF_PERICENTER": 74.1506, "MEAN_ANOMALY": 288.2912, "EPHEMERIS_TYPE": 0, "CLASSIFICATION_TYPE": "U", "NORAD_CAT_ID": 31475, "ELEMENT_SET_NO": 999, "REV_AT_EPOCH": 96240, "BSTAR": 0.00069378, "MEAN_MOTION_DOT": 2.684e-05, "MEAN_MOTION_DDOT": 0}, "tle": {"line1": "1 31475U 99025BVP 25357.95817485  .00002684  00000+0  69378-3 0  9999", "line2": "2 31475  98.9391 247.1174 0211772  74.1506 288.2912 14.38250709962402"}}, "geometry": {"type": "Point", "coordinates": [54.919941741149714, -57.95443481134357]}}]}